satname,norad_id,inclination_deg,eccentricity,mean_motion_rev_per_day,perigee_km,apogee_km,l1,l2
STARLINK-1184,45098,53.055,0.0002918,15.08411046,539.0358202603347,543.0738606184159,1 45098U 20006BG  26027.41570894  .00045827  00000+0  29123-2 0  9993,2 45098  53.0550  71.5832 0002918  19.3698 340.7402 15.08411046330802
STARLINK-1193,45100,53.0544,0.0001832,15.44376571,431.96267219917445,434.4583499272285,1 45100U 20006BJ  26028.00003472  .00147539  00000+0  30951-2 0  9990,2 45100  53.0544  65.4354 0001832  79.2585 235.0228 15.44376571  5741
STARLINK-1143,45179,53.0477,0.000207,15.54399775,402.49408955354284,405.30185203145084,1 45179U 20012B   26028.00003472  .00082509  00000+0  12300-2 0  9996,2 45179  53.0477 167.5517 0002070 232.2808 337.1968 15.54399775  5861
STARLINK-1202,45183,53.1545,0.0001589,15.29316218,476.7657367282927,478.94457103479635,1 45183U 20012F   26028.00003472  .00059547  00000+0  20619-2 0  9999,2 45183  53.1545 228.1982 0001589  79.6082 323.7121 15.29316218  5757
STARLINK-1216,45185,53.1535,0.0001765,15.29249761,476.84366317914737,479.2638985247877,1 45185U 20012H   26028.00003472  .00115991  00000+0  39825-2 0  9996,2 45185  53.1535 228.2163 0001765  95.5800 337.5253 15.29249761  5602
STARLINK-1225,45187,53.1372,0.000121,15.25352825,488.8951609396827,490.5571838274009,1 45187U 20012K   26028.00003472  .01782351  00000+0  63642-1 0  9992,2 45187  53.1372 228.6220 0001210 105.2720   3.5225 15.25352825  5641
STARLINK-1230,45189,53.1324,0.0001463,15.24344894,491.7480842730847,493.7585067735545,1 45189U 20012M   26028.00003472  .01684735  00000+0  61342-1 0  9996,2 45189  53.1324 228.6571 0001463  88.4782 342.3361 15.24344894  5752
STARLINK-1234,45190,53.0453,0.0011487,15.52866658,400.56543940572556,416.15674011714236,1 45190U 20012N   26027.96851525  .00017415  00000+0  28198-3 0  9990,2 45190  53.0453 162.9297 0011487 173.6514 186.4643 15.52866658329531
STARLINK-1269,45197,53.1363,0.0001669,15.25108735,489.312574208785,491.60531153451484,1 45197U 20012V   26028.00003472  .01583261  00000+0  56710-1 0  9990,2 45197  53.1363 228.5272 0001669  90.2013 351.3532 15.25108735  5648
STARLINK-1154,45198,53.0512,0.0002494,15.39333328,446.37706556666035,449.78198236881417,1 45198U 20012W   26027.22652558  .00023881  00000+0  61077-3 0  9999,2 45198  53.0512 206.8147 0002494 124.0188 236.1053 15.39333328328896
STARLINK-1199,45201,53.0533,0.0001608,15.06404543,546.0840405233812,548.3112281417816,1 45201U 20012Z   26027.53300162 -.00000961  00000+0 -45618-4 0  9999,2 45201  53.0533 211.3768 0001608  83.2522 276.8650 15.06404543328917
STARLINK-1209,45206,53.0471,0.0014769,15.43284825,426.35801851674023,446.4868641946159,1 45206U 20012AE  26027.78640729  .00058250  00000+0  12836-2 0  9993,2 45206  53.0471 168.9017 0014769 153.7812 206.3944 15.43284825328581
STARLINK-1210,45207,53.0138,0.0007879,15.86626935,306.47663833023034,317.0185584803967,1 45207U 20012AF  26028.00003472  .00302680  00000+0  11280-2 0  9999,2 45207  53.0138 108.8056 0007879 342.6693 325.5441 15.86626935  5945
STARLINK-1231,45212,53.05,0.0001647,15.1786892,511.14763381574994,513.4173379944077,1 45212U 20012AL  26027.89609561  .00040421  00000+0  19756-2 0  9990,2 45212  53.0500 202.6405 0001647 133.9704 226.1426 15.17868920329029
STARLINK-1271,45217,53.0523,0.0001503,15.06396571,546.1811858815227,548.2629488171688,1 45217U 20012AR  26027.84998925 -.00003469  00000+0 -21410-3 0  9999,2 45217  53.0523 209.9558 0001503  94.0942 266.0219 15.06396571328961
STARLINK-1191,45222,53.1587,0.0001109,15.31029541,471.97956574326054,473.49909011279397,1 45222U 20012AW  26028.00003472  .00020084  00000+0  67101-3 0  9995,2 45222  53.1587 187.9911 0001109  67.9406 327.1813 15.31029541  5691
STARLINK-1212,45223,53.0516,6.82e-05,15.41593529,440.940646879767,441.87083250946125,1 45223U 20012AX  26028.00003472  .00033545  00000+0  79165-3 0  9995,2 45223  53.0516 184.1116 0000682 283.9451 123.3618 15.41593529  5775
STARLINK-1215,45225,53.1592,6.39e-05,15.29356129,477.2977843483495,478.17396490172723,1 45225U 20012AZ  26025.86996917 -.00004610  00000+0 -14753-3 0  9998,2 45225  53.1592 197.1508 0000639  64.6119 295.4948 15.29356129328929
STARLINK-1221,45227,53.0664,0.0002257,15.40268094,443.77737075877576,446.8574780859608,1 45227U 20012BB  26027.47183960  .00027002  00000+0  66822-3 0  9997,2 45227  53.0664 104.6947 0002257 236.1708 123.9081 15.40268094330357
STARLINK-1222,45228,53.0536,6.59e-05,15.46213571,427.36605419876105,428.263078615214,1 45228U 20012BC  26027.81582499  .00031640  00000+0  63962-3 0  9991,2 45228  53.0536 178.3129 0000659  92.8335 267.2746 15.46213571329290
STARLINK-1226,45229,53.1578,0.0001287,15.31040413,471.82519198704813,473.5885992057756,1 45229U 20012BD  26028.00003472  .00012296  00000+0  41571-3 0  9991,2 45229  53.1578 187.7925 0001287  92.2975 211.1977 15.31040413  5694
STARLINK-1227,45230,53.1501,0.00015,15.28123468,480.3933057635995,482.4511735354954,1 45230U 20012BE  26028.00003472  .00672073  00000+0  22390-1 0  9994,2 45230  53.1501 188.0869 0001500  94.4446  68.4061 15.28123468  5693
STARLINK-1246,45235,53.1362,0.0001574,15.25257425,488.93149798954255,491.0935914662223,1 45235U 20012BK  26028.00003472  .00807484  00000+0  29276-1 0  9995,2 45235  53.1362 228.1283 0001574  86.4995 336.3985 15.25257425  5757
STARLINK-1270,45237,53.0491,0.0001732,15.40966803,442.0731983668138,444.436128439017,1 45237U 20012BM  26028.00003472  .00016426  00000+0  40159-3 0  9990,2 45237  53.0491 180.9289 0001732 210.9004 227.0577 15.40966803  5840
STARLINK-1279,45360,53.0485,0.0007685,15.48761179,415.12432714471197,425.5736000707757,1 45360U 20019A   26027.06326706  .00109331  00000+0  19822-2 0  9997,2 45360  53.0485 299.3951 0007685  76.5853 283.6011 15.48761179324204
STARLINK-1301,45361,53.0464,0.0010232,15.54771603,395.8783607782889,409.75490429190813,1 45361U 20019B   26028.00003472  .00089715  00000+0  13150-2 0  9996,2 45361  53.0464 302.2851 0010232  70.7834  55.8112 15.54771603  5872
STARLINK-1262,45366,53.0558,0.000141,15.06406098,546.2163969981375,548.169340021057,1 45366U 20019G   26027.15888394  .00006399  00000+0  44805-3 0  9999,2 45366  53.0558 353.0572 0001410 102.5482 257.5665 15.06406098323479
STARLINK-1273,45367,53.0554,0.0001692,15.32687264,466.6402601676655,468.95692477215744,1 45367U 20019H   26028.00003472  .01571537  00000+0  44709-1 0  9994,2 45367  53.0554 347.5575 0001692  75.6976 217.2385 15.32687264  5741
STARLINK-1276,45368,53.0556,0.0001609,15.06410351,546.0655503171929,548.2941172743085,1 45368U 20019J   26027.21785203  .00006940  00000+0  48418-3 0  9999,2 45368  53.0556 352.7937 0001609  89.5439 270.5734 15.06410351323486
STARLINK-1277,45369,53.0551,7.54e-05,15.42636903,437.81646551326867,438.84438880128437,1 45369U 20019K   26028.00003472  .00100460  00000+0  22515-2 0  9990,2 45369  53.0551 346.5051 0000754  62.1300 204.9396 15.42636903  5748
STARLINK-1281,45370,53.0555,0.0001694,15.0639784,546.045022867932,548.3913332022512,1 45370U 20019L   26027.60488236  .00001594  00000+0  12587-3 0  9999,2 45370  53.0555 351.0565 0001694  92.9775 267.1407 15.06397840323545
STARLINK-1300,45374,53.0565,0.0001606,15.06400126,546.0989608500668,548.3233826828382,1 45374U 20019Q   26027.16256399  .00001565  00000+0  12395-3 0  9992,2 45374  53.0565 353.0421 0001606  80.0619 280.0552 15.06400126323470
STARLINK-1302,45375,53.0548,0.0001633,15.41084393,441.7937854165066,444.02153860311955,1 45375U 20019R   26028.00003472  .01325928  00000+0  28834-1 0  9995,2 45375  53.0548 345.9855 0001633  99.4807 297.3999 15.41084393  5742
STARLINK-1304,45376,53.055,0.0004986,15.41919609,437.0445118016587,443.8440010305576,1 45376U 20019S   26028.00003472  .00022198  00000+0  52204-3 0  9998,2 45376  53.0550 343.1994 0004986  86.0256 190.7219 15.41919609  5764
STARLINK-1305,45377,53.0504,0.0006681,15.44902094,427.1161355115628,436.21539396580647,1 45377U 20019T   26027.15576331  .00044122  00000+0  92714-3 0  9994,2 45377  53.0504 331.2397 0006681  28.5626 331.5744 15.44902094323781
STARLINK-1319,45379,53.0523,0.000659,15.50590083,410.52540707789285,419.4787643928912,1 45379U 20019V   26028.00003472  .00094294  00000+0  16075-2 0  9992,2 45379  53.0523 326.7558 0006590  56.0347 222.7149 15.50590083  5816
STARLINK-1266,45383,53.0539,0.0001216,15.40542886,443.676351357336,445.3356181312265,1 45383U 20019Z   26028.00003472  .00015068  00000+0  37443-3 0  9992,2 45383  53.0539 326.0748 0001216 105.2770  34.4398 15.40542886  5696
STARLINK-1267,45384,53.056,0.0008002,15.42117768,434.4043667120459,445.3158893157197,1 45384U 20019AA  26027.11724232  .00094498  00000+0  21552-2 0  9995,2 45384  53.0560 325.2781 0008002  85.5876 274.6043 15.42117768323851
STARLINK-1272,45386,53.0489,0.0007055,15.4794246,417.94791140080724,427.54395722112076,1 45386U 20019AC  26028.00003472  .00075762  00000+0  14222-2 0  9991,2 45386  53.0489 305.6793 0007055  60.6595  85.8162 15.47942460  5858
STARLINK-1274,45387,53.0324,0.000987,15.41144663,435.99763022007755,449.46202133416136,1 45387U 20019AD  26027.75423496  .00045419  00000+0  10812-2 0  9992,2 45387  53.0324 297.7511 0009870  96.0455 264.1674 15.41144663324296
STARLINK-1280,45388,53.05,0.0006984,15.56376209,393.4225453470117,402.8876701631243,1 45388U 20019AE  26028.00003472  .00108979  00000+0  15024-2 0  9991,2 45388  53.0500 321.0692 0006984  59.4447 294.6565 15.56376209  5888
STARLINK-1283,45389,53.05,0.0012391,15.47689363,415.0594634604513,431.9152489399876,1 45389U 20019AF  26028.00003472  .00075555  00000+0  14282-2 0  9990,2 45389  53.0500 305.8260 0012391  91.2364 154.7668 15.47689363  5845
STARLINK-1284,45390,53.0544,0.0001942,15.4442075,431.75787710309214,434.4033540249766,1 45390U 20019AG  26028.00003472  .00091373  00000+0  19314-2 0  9999,2 45390  53.0544 325.6683 0001942  88.6379 238.1629 15.44420750  5743
